[{"OBJECT_NAME":"HAWK-11C","OBJECT_ID":"2024-247E","EPOCH":"2026-03-09T12:17:35.407968","MEAN_MOTION":15.2884802,"ECCENTRICITY":0.00059001,"INCLINATION":45.0045,"RA_OF_ASC_NODE":114.8762,"ARG_OF_PERICENTER":329.704,"MEAN_ANOMALY":30.3502,"EPHEMERIS_TYPE":0,"CLASSIFICATION_TYPE":"U","NORAD_CAT_ID":62381,"ELEMENT_SET_NO":999,"REV_AT_EPOCH":6774,"BSTAR":0.00033290115,"MEAN_MOTION_DOT":9.223e-5,"MEAN_MOTION_DDOT":0},{"OBJECT_NAME":"STARLINK-36131","OBJECT_ID":"2025-294C","EPOCH":"2026-03-09T23:00:30.180096","MEAN_MOTION":15.27587084,"ECCENTRICITY":0.00013291,"INCLINATION":43.0026,"RA_OF_ASC_NODE":36.2761,"ARG_OF_PERICENTER":252.9195,"MEAN_ANOMALY":107.1511,"EPHEMERIS_TYPE":0,"CLASSIFICATION_TYPE":"U","NORAD_CAT_ID":67032,"ELEMENT_SET_NO":999,"REV_AT_EPOCH":1484,"BSTAR":0.0010697322,"MEAN_MOTION_DOT":0.00029298,"MEAN_MOTION_DDOT":0}]
